{"type":"FeatureCollection","features":[{"type":"Feature","geometry":{"type":"Polygon","coordinates":[[[104.98,16.28],[104.77,16.2],[104.81,16.1],[104.56,16.1],[104.42,15.71],[104.51,15.56],[104.63,15.69],[104.86,15.58],[105.06,16.1],[104.98,16.28]]]},"properties":{"ADM1_TH":"อำนาจเจริญ","ADM1_PCODE":"TH37"}},{"type":"Feature","geometry":{"type":"Polygon","coordinates":[[[100.46,14.72],[100.23,14.8],[100.19,14.61],[100.25,14.48],[100.5,14.46],[100.5,14.67],[100.46,14.72]]]},"properties":{"ADM1_TH":"อ่างทอง","ADM1_PCODE":"TH15"}},{"type":"Feature","geometry":{"type":"Polygon","coordinates":[[[100.91,13.95],[100.69,13.92],[100.57,13.95],[100.5,13.8],[100.33,13.8],[100.41,13.49],[100.45,13.5],[100.52,13.68],[100.7,13.66],[100.86,13.7],[100.94,13.81],[100.91,13.95]]]},"properties":{"ADM1_TH":"กรุงเทพมหานคร","ADM1_PCODE":"TH10"}},{"type":"Feature","geometry":{"type":"Polygon","coordinates":[[[104.19,18.02],[103.98,18.34],[103.82,18.34],[103.41,18.45],[103.24,18.37],[103.37,18.16],[103.29,18.12],[103.41,17.99],[103.52,18.07],[103.79,17.87],[104.01,17.81],[104.0,17.89],[104.12,17.92],[104.19,18.02]]]},"properties":{"ADM1_TH":"บึงกาฬ","ADM1_PCODE":"TH38"}},{"type":"Feature","geometry":{"type":"Polygon","coordinates":[[[103.11,15.48],[102.97,15.66],[102.93,15.8],[102.86,15.64],[102.78,15.63],[102.8,15.53],[102.98,15.48],[102.97,15.19],[102.82,15.16],[102.8,15.04],[102.7,14.93],[102.57,14.96],[102.46,14.84],[102.48,14.51],[102.61,14.49],[102.56,14.38],[102.69,14.3],[102.43,14.15],[102.7,14.13],[102.93,14.18],[103.06,14.29],[103.23,14.33],[103.21,14.59],[103.29,14.81],[103.43,14.94],[103.44,15.26],[103.09,15.42],[103.11,15.48]]]},"properties":{"ADM1_TH":"บุรีรัมย์","ADM1_PCODE":"TH31"}},{"type":"Feature","geometry":{"type":"Polygon","coordinates":[[[101.14,13.97],[100.91,13.96],[100.94,13.81],[100.86,13.7],[100.96,13.66],[100.85,13.48],[100.96,13.46],[101.15,13.58],[101.27,13.57],[101.5,13.41],[101.72,13.18],[101.99,13.33],[101.92,13.59],[101.76,13.77],[101.59,13.74],[101.55,13.79],[101.23,13.89],[101.14,13.97]]]},"properties":{"ADM1_TH":"ฉะเชิงเทรา","ADM1_PCODE":"TH24"}},{"type":"Feature","geometry":{"type":"Polygon","coordinates":[[[100.35,15.12],[100.25,15.36],[100.1,15.42],[100.05,15.26],[99.76,15.31],[99.79,15.1],[99.72,14.96],[99.93,14.91],[100.2,14.95],[100.35,15.12]]]},"properties":{"ADM1_TH":"ชัยนาท","ADM1_PCODE":"TH18"}},{"type":"Feature","geometry":{"type":"Polygon","coordinates":[[[101.75,16.67],[101.55,16.73],[101.35,16.26],[101.37,15.91],[101.34,15.75],[101.4,15.74],[101.38,15.33],[101.54,15.4],[101.88,15.39],[102.03,15.48],[102.16,15.74],[102.33,15.8],[102.38,15.99],[102.28,16.07],[102.46,16.39],[102.2,16.5],[102.07,16.49],[101.98,16.61],[101.75,16.67]]]},"properties":{"ADM1_TH":"ชัยภูมิ","ADM1_PCODE":"TH36"}},{"type":"Feature","geometry":{"type":"Polygon","coordinates":[[[102.35,13.3],[102.13,13.34],[102.03,13.24],[101.99,13.33],[101.72,13.18],[101.7,13.15],[101.83,12.82],[101.78,12.69],[102.26,12.29],[102.37,12.39],[102.31,12.56],[102.42,12.57],[102.39,12.68],[102.51,12.75],[102.49,13.01],[102.35,13.3]]]},"properties":{"ADM1_TH":"จันทบุรี","ADM1_PCODE":"TH22"}},{"type":"Feature","geometry":{"type":"Polygon","coordinates":[[[99.4,19.0],[99.34,19.27],[99.42,19.81],[99.57,20.12],[99.4,20.09],[99.08,20.1],[98.83,19.81],[98.6,19.47],[98.64,19.07],[98.33,19.16],[98.09,18.86],[98.24,18.57],[98.2,18.33],[98.17,18.12],[98.25,17.99],[98.15,17.78],[98.14,17.54],[98.29,17.41],[98.57,17.28],[98.52,17.82],[98.87,17.85],[98.67,18.33],[99.01,18.67],[99.32,18.53],[99.4,19.0]]]},"properties":{"ADM1_TH":"เชียงใหม่","ADM1_PCODE":"TH50"}},{"type":"Feature","geometry":{"type":"Polygon","coordinates":[[[100.41,19.74],[100.5,19.87],[100.58,20.17],[100.46,20.2],[100.37,20.35],[100.27,20.4],[100.17,20.25],[100.06,20.4],[99.87,20.45],[99.81,20.34],[99.68,20.32],[99.46,20.39],[99.56,20.21],[99.51,20.15],[99.57,20.12],[99.38,19.89],[99.42,19.81],[99.26,19.66],[99.34,19.27],[99.32,19.12],[99.4,19.0],[99.56,19.13],[99.57,19.42],[99.69,19.38],[99.88,19.45],[100.07,19.43],[100.07,19.54],[100.32,19.65],[100.41,19.74]]]},"properties":{"ADM1_TH":"เชียงราย","ADM1_PCODE":"TH57"}},{"type":"Feature","geometry":{"type":"Polygon","coordinates":[[[101.72,13.18],[101.5,13.41],[101.27,13.57],[101.15,13.58],[100.96,13.46],[100.9,13.3],[100.94,13.22],[100.87,13.08],[100.93,13.01],[100.86,12.91],[100.91,12.81],[100.85,12.65],[100.99,12.66],[101.09,13.03],[101.19,13.09],[101.39,13.02],[101.7,13.15],[101.72,13.18]]]},"properties":{"ADM1_TH":"ชลบุรี","ADM1_PCODE":"TH20"}},{"type":"Feature","geometry":{"type":"Polygon","coordinates":[[[99.15,11.03],[98.89,10.78],[98.96,10.61],[98.89,10.48],[98.94,10.34],[98.84,10.07],[98.9,10.03],[98.63,9.78],[98.74,9.6],[98.88,9.73],[98.94,9.68],[99.16,9.7],[99.15,10.12],[99.21,10.27],[99.15,10.34],[99.29,10.37],[99.23,10.47],[99.5,10.99],[99.27,10.97],[99.15,11.03]]]},"properties":{"ADM1_TH":"ชุมพร","ADM1_PCODE":"TH86"}},{"type":"Feature","geometry":{"type":"Polygon","coordinates":[[[103.66,17.02],[103.52,17.06],[103.42,16.8],[103.4,16.89],[103.22,16.97],[103.1,16.91],[103.18,16.86],[103.15,16.64],[103.18,16.36],[103.34,16.36],[103.5,16.2],[103.66,16.19],[103.75,16.3],[103.7,16.37],[103.82,16.47],[104.24,16.43],[104.23,16.55],[104.07,16.82],[103.95,16.78],[103.66,17.02]]]},"properties":{"ADM1_TH":"กาฬสินธุ์","ADM1_PCODE":"TH46"}},{"type":"Feature","geometry":{"type":"Polygon","coordinates":[[[99.85,16.74],[99.76,16.68],[99.43,16.88],[99.32,16.81],[99.24,16.53],[99.02,16.42],[99.08,16.22],[99.09,15.88],[99.22,15.94],[99.54,15.92],[99.74,15.86],[100.02,16.19],[99.98,16.38],[100.01,16.57],[99.93,16.58],[99.85,16.74]]]},"properties":{"ADM1_TH":"กำแพงเพชร","ADM1_PCODE":"TH62"}},{"type":"Feature","geometry":{"type":"Polygon","coordinates":[[[98.98,15.18],[98.75,15.44],[98.65,15.63],[98.56,15.65],[98.56,15.34],[98.5,15.4],[98.21,15.24],[98.18,15.12],[98.25,14.83],[98.49,14.54],[98.56,14.39],[98.97,14.08],[99.11,13.89],[99.17,13.73],[99.48,13.8],[99.54,13.76],[99.67,13.85],[99.82,13.82],[99.88,13.96],[99.77,14.12],[99.83,14.27],[99.79,14.74],[99.66,14.8],[99.49,14.7],[99.29,14.83],[99.28,15.0],[99.03,15.05],[98.98,15.18]]]},"properties":{"ADM1_TH":"กาญจนบุรี","ADM1_PCODE":"TH71"}},{"type":"Feature","geometry":{"type":"Polygon","coordinates":[[[103.1,16.91],[102.94,16.84],[102.82,16.86],[102.82,16.97],[102.67,16.99],[102.61,16.77],[102.36,16.82],[102.3,16.89],[102.07,16.89],[101.8,16.77],[101.75,16.67],[101.98,16.61],[102.07,16.49],[102.2,16.5],[102.46,16.39],[102.28,16.07],[102.38,15.99],[102.33,15.8],[102.42,15.69],[102.68,15.73],[102.78,15.63],[102.86,15.64],[102.93,15.8],[102.85,16.08],[102.85,16.28],[102.95,16.45],[103.09,16.52],[103.15,16.64],[103.18,16.86],[103.1,16.91]]]},"properties":{"ADM1_TH":"ขอนแก่น","ADM1_PCODE":"TH40"}},{"type":"Feature","geometry":{"type":"Polygon","coordinates":[[[99.29,8.31],[99.04,8.36],[98.94,8.44],[98.89,8.68],[98.7,8.63],[98.64,8.38],[98.71,8.29],[98.74,8.08],[98.91,8.05],[99.12,7.76],[99.26,7.66],[99.28,7.85],[99.37,7.94],[99.38,8.14],[99.3,8.13],[99.29,8.31]]]},"properties":{"ADM1_TH":"กระบี่","ADM1_PCODE":"TH81"}},{"type":"Feature","geometry":{"type":"Polygon","coordinates":[[[99.69,19.38],[99.57,19.42],[99.56,19.13],[99.4,19.0],[99.32,18.53],[99.15,18.32],[99.02,18.25],[99.11,17.91],[99.05,17.61],[98.88,17.63],[98.91,17.54],[99.05,17.39],[99.17,17.34],[99.27,17.4],[99.32,17.27],[99.44,17.23],[99.47,17.37],[99.41,17.47],[99.47,17.74],[99.37,17.77],[99.63,18.06],[99.72,18.07],[100.11,18.56],[100.11,18.81],[99.78,19.06],[99.69,19.38]]]},"properties":{"ADM1_TH":"ลำปาง","ADM1_PCODE":"TH52"}},{"type":"Feature","geometry":{"type":"Polygon","coordinates":[[[99.32,18.53],[99.15,18.71],[99.01,18.67],[98.93,18.54],[98.67,18.33],[98.77,18.26],[98.87,17.85],[98.69,17.79],[98.69,17.43],[98.91,17.54],[98.88,17.63],[99.05,17.61],[99.11,17.91],[99.02,18.25],[99.15,18.32],[99.32,18.53]]]},"properties":{"ADM1_TH":"ลำพูน","ADM1_PCODE":"TH51"}},{"type":"Feature","geometry":{"type":"Polygon","coordinates":[[[102.11,18.21],[101.9,18.03],[101.79,18.07],[101.72,17.91],[101.57,17.86],[101.26,17.6],[101.16,17.47],[100.97,17.57],[100.83,17.48],[100.91,17.34],[101.11,17.22],[101.05,17.12],[101.07,16.9],[101.12,17.02],[101.36,17.17],[101.5,17.01],[101.63,17.04],[101.72,16.76],[102.07,16.89],[102.03,16.95],[102.15,17.03],[102.04,17.14],[102.08,17.25],[101.99,17.45],[102.13,17.46],[102.02,17.75],[102.06,18.09],[102.11,18.21]]]},"properties":{"ADM1_TH":"เลย","ADM1_PCODE":"TH42"}},{"type":"Feature","geometry":{"type":"Polygon","coordinates":[[[101.38,15.33],[101.4,15.74],[101.34,15.75],[101.3,15.38],[101.21,15.32],[100.98,15.34],[100.97,15.42],[100.83,15.56],[100.64,15.42],[100.62,15.25],[100.43,15.06],[100.46,14.72],[100.5,14.67],[100.6,14.66],[100.77,14.8],[100.99,14.74],[101.1,14.91],[101.26,14.91],[101.4,15.07],[101.38,15.33]]]},"properties":{"ADM1_TH":"ลพบุรี","ADM1_PCODE":"TH16"}},{"type":"Feature","geometry":{"type":"Polygon","coordinates":[[[98.47,19.69],[98.03,19.8],[97.86,19.58],[97.84,19.09],[97.74,18.89],[97.54,18.49],[97.45,18.33],[97.74,17.99],[97.74,17.79],[98.09,17.64],[98.01,17.93],[98.29,18.08],[98.14,18.28],[98.07,18.43],[98.12,18.63],[98.25,19.11],[98.4,19.04],[98.59,19.19],[98.47,19.69]]]},"properties":{"ADM1_TH":"แม่ฮ่องสอน","ADM1_PCODE":"TH58"}},{"type":"Feature","geometry":{"type":"Polygon","coordinates":[[[103.5,16.2],[103.34,16.36],[103.18,16.36],[103.15,16.64],[103.09,16.52],[102.95,16.45],[102.85,16.28],[102.85,16.08],[102.97,15.66],[103.11,15.48],[103.35,15.41],[103.4,15.44],[103.42,15.53],[103.27,15.65],[103.42,15.73],[103.5,16.2]]]},"properties":{"ADM1_TH":"มหาสารคาม","ADM1_PCODE":"TH44"}},{"type":"Feature","geometry":{"type":"Polygon","coordinates":[[[104.74,16.8],[104.41,16.9],[104.25,16.91],[104.07,16.82],[104.23,16.55],[104.24,16.43],[104.31,16.45],[104.35,16.32],[104.5,16.34],[104.63,16.21],[104.77,16.2],[104.98,16.28],[104.73,16.56],[104.74,16.8]]]},"properties":{"ADM1_TH":"มุกดาหาร","ADM1_PCODE":"TH49"}},{"type":"Feature","geometry":{"type":"Polygon","coordinates":[[[101.43,14.39],[101.27,14.51],[101.21,14.37],[101.08,14.39],[100.95,14.27],[100.91,13.96],[101.14,13.97],[101.32,14.08],[101.29,14.15],[101.5,14.27],[101.43,14.39]]]},"properties":{"ADM1_TH":"นครนายก","ADM1_PCODE":"TH26"}},{"type":"Feature","geometry":{"type":"Polygon","coordinates":[[[100.28,14.13],[100.21,14.18],[99.93,14.13],[99.81,14.06],[99.96,13.72],[100.06,13.66],[100.33,13.72],[100.28,13.91],[100.28,14.13]]]},"properties":{"ADM1_TH":"นครปฐม","ADM1_PCODE":"TH73"}},{"type":"Feature","geometry":{"type":"Polygon","coordinates":[[[104.74,16.8],[104.73,17.0],[104.8,17.17],[104.8,17.39],[104.71,17.53],[104.47,17.66],[104.27,17.87],[104.19,18.02],[104.12,17.92],[104.0,17.89],[104.08,17.7],[104.01,17.49],[104.07,17.38],[104.17,17.43],[104.39,17.41],[104.44,17.24],[104.35,17.06],[104.4,17.02],[104.25,16.91],[104.41,16.9],[104.74,16.8]]]},"properties":{"ADM1_TH":"นครพนม","ADM1_PCODE":"TH48"}},{"type":"Feature","geometry":{"type":"Polygon","coordinates":[[[102.33,15.8],[102.16,15.74],[102.03,15.48],[101.88,15.39],[101.54,15.4],[101.38,15.33],[101.45,14.86],[101.28,14.73],[101.2,14.76],[101.24,14.47],[101.27,14.51],[101.43,14.39],[101.61,14.44],[101.75,14.35],[101.93,14.33],[101.95,14.25],[102.11,14.15],[102.31,14.12],[102.69,14.3],[102.56,14.38],[102.61,14.49],[102.48,14.51],[102.46,14.84],[102.57,14.96],[102.7,14.93],[102.8,15.04],[102.82,15.16],[102.97,15.19],[102.98,15.48],[102.8,15.53],[102.78,15.63],[102.68,15.73],[102.42,15.69],[102.33,15.8]]]},"properties":{"ADM1_TH":"นครราชสีมา","ADM1_PCODE":"TH30"}},{"type":"Feature","geometry":{"type":"Polygon","coordinates":[[[100.77,15.93],[100.65,16.03],[100.58,15.95],[100.35,15.97],[100.18,15.93],[100.02,16.19],[99.74,15.86],[99.54,15.92],[99.22,15.94],[99.09,15.88],[99.13,15.8],[99.36,15.68],[99.47,15.57],[99.74,15.69],[100.1,15.42],[100.25,15.36],[100.35,15.12],[100.43,15.06],[100.62,15.25],[100.64,15.42],[100.83,15.56],[100.81,15.88],[100.77,15.93]]]},"properties":{"ADM1_TH":"นครสวรรค์","ADM1_PCODE":"TH60"}},{"type":"Feature","geometry":{"type":"Polygon","coordinates":[[[100.34,7.93],[100.22,8.42],[100.09,8.41],[99.95,8.63],[99.91,9.1],[99.84,9.29],[99.77,9.32],[99.72,9.15],[99.77,9.1],[99.7,8.94],[99.52,8.85],[99.52,8.72],[99.39,8.51],[99.23,8.39],[99.29,8.31],[99.3,8.13],[99.38,8.14],[99.37,7.94],[99.52,7.88],[99.6,7.99],[99.75,8.01],[99.74,7.86],[99.81,7.89],[100.06,7.84],[100.18,7.88],[100.34,7.93]]]},"properties":{"ADM1_TH":"นครศรีธรรมราช","ADM1_PCODE":"TH80"}},{"type":"Feature","geometry":{"type":"Polygon","coordinates":[[[101.09,18.38],[101.05,18.43],[101.27,18.69],[101.25,18.89],[101.36,19.05],[101.26,19.12],[101.19,19.38],[101.28,19.58],[101.12,19.57],[100.9,19.63],[100.77,19.49],[100.6,19.51],[100.49,19.4],[100.61,19.33],[100.61,19.02],[100.49,19.05],[100.34,18.81],[100.41,18.48],[100.54,18.49],[100.41,18.02],[100.48,18.06],[100.77,18.03],[100.91,18.23],[101.09,18.38]]]},"properties":{"ADM1_TH":"น่าน","ADM1_PCODE":"TH55"}},{"type":"Feature","geometry":{"type":"Polygon","coordinates":[[[101.72,6.58],[101.59,6.57],[101.42,6.42],[101.37,6.21],[101.48,6.05],[101.5,5.89],[101.58,5.93],[101.69,5.76],[101.82,5.73],[101.94,5.87],[101.94,5.97],[102.05,6.08],[102.09,6.24],[101.82,6.45],[101.72,6.58]]]},"properties":{"ADM1_TH":"นราธิวาส","ADM1_PCODE":"TH96"}},{"type":"Feature","geometry":{"type":"Polygon","coordinates":[[[102.67,16.99],[102.47,17.2],[102.59,17.27],[102.44,17.28],[102.32,17.68],[102.08,17.63],[102.13,17.46],[101.99,17.45],[102.08,17.25],[102.04,17.14],[102.15,17.03],[102.03,16.95],[102.07,16.89],[102.3,16.89],[102.36,16.82],[102.61,16.77],[102.67,16.99]]]},"properties":{"ADM1_TH":"หนองบัวลำภู","ADM1_PCODE":"TH39"}},{"type":"Feature","geometry":{"type":"Polygon","coordinates":[[[103.41,17.99],[103.29,18.12],[103.37,18.16],[103.3,18.31],[103.17,18.26],[103.08,18.03],[102.59,17.84],[102.61,17.94],[102.29,18.06],[102.11,18.21],[102.06,18.09],[102.4,17.88],[102.65,17.59],[102.83,17.69],[102.87,17.89],[102.96,17.83],[103.08,17.89],[103.15,17.8],[103.4,17.9],[103.41,17.99]]]},"properties":{"ADM1_TH":"หนองคาย","ADM1_PCODE":"TH43"}},{"type":"Feature","geometry":{"type":"Polygon","coordinates":[[[100.57,13.95],[100.36,14.0],[100.34,14.12],[100.28,14.13],[100.28,13.91],[100.33,13.8],[100.5,13.8],[100.57,13.95]]]},"properties":{"ADM1_TH":"นนทบุรี","ADM1_PCODE":"TH12"}},{"type":"Feature","geometry":{"type":"Polygon","coordinates":[[[100.95,14.27],[100.55,14.12],[100.34,14.12],[100.36,14.0],[100.69,13.92],[100.91,13.96],[100.95,14.27]]]},"properties":{"ADM1_TH":"ปทุมธานี","ADM1_PCODE":"TH13"}},{"type":"Feature","geometry":{"type":"Polygon","coordinates":[[[101.72,6.58],[101.56,6.85],[101.35,6.91],[101.07,6.86],[101.02,6.72],[101.1,6.63],[101.31,6.56],[101.51,6.6],[101.59,6.57],[101.72,6.58]]]},"properties":{"ADM1_TH":"ปัตตานี","ADM1_PCODE":"TH94"}},{"type":"Feature","geometry":{"type":"Polygon","coordinates":[[[98.51,9.31],[98.39,9.33],[98.32,9.19],[98.36,8.98],[98.29,8.91],[98.21,8.55],[98.28,8.21],[98.39,8.13],[98.47,8.32],[98.64,8.38],[98.7,8.63],[98.54,8.66],[98.6,8.8],[98.45,8.9],[98.51,9.31]]]},"properties":{"ADM1_TH":"พังงา","ADM1_PCODE":"TH82"}},{"type":"Feature","geometry":{"type":"Polygon","coordinates":[[[100.18,7.88],[100.06,7.84],[99.81,7.89],[99.74,7.86],[99.82,7.52],[99.94,7.32],[99.95,7.2],[100.06,7.11],[100.31,7.21],[100.43,7.31],[100.39,7.51],[100.26,7.5],[100.18,7.88]]]},"properties":{"ADM1_TH":"พัทลุง","ADM1_PCODE":"TH93"}},{"type":"Feature","geometry":{"type":"Polygon","coordinates":[[[100.6,19.51],[100.49,19.54],[100.41,19.74],[100.32,19.65],[100.07,19.54],[100.07,19.43],[99.88,19.45],[99.69,19.38],[99.78,19.06],[100.11,18.81],[100.34,18.81],[100.49,19.05],[100.61,19.02],[100.61,19.33],[100.49,19.4],[100.6,19.51]]]},"properties":{"ADM1_TH":"พะเยา","ADM1_PCODE":"TH56"}},{"type":"Feature","geometry":{"type":"Polygon","coordinates":[[[101.8,16.77],[101.72,16.76],[101.63,17.04],[101.5,17.01],[101.36,17.17],[101.12,17.02],[101.07,16.9],[100.9,16.8],[100.85,16.52],[100.65,16.32],[100.71,16.25],[100.64,16.05],[100.81,15.88],[100.83,15.56],[100.97,15.42],[100.98,15.34],[101.21,15.32],[101.3,15.38],[101.37,15.91],[101.35,16.26],[101.55,16.73],[101.75,16.67],[101.8,16.77]]]},"properties":{"ADM1_TH":"เพชรบูรณ์","ADM1_PCODE":"TH67"}},{"type":"Feature","geometry":{"type":"Polygon","coordinates":[[[99.86,13.33],[99.76,13.34],[99.66,13.21],[99.44,13.18],[99.35,13.24],[99.27,13.15],[99.21,13.21],[99.1,13.07],[99.25,12.72],[99.44,12.58],[99.96,12.63],[100.04,12.97],[100.1,13.06],[99.95,13.3],[99.86,13.33]]]},"properties":{"ADM1_TH":"เพชรบุรี","ADM1_PCODE":"TH76"}},{"type":"Feature","geometry":{"type":"Polygon","coordinates":[[[100.65,16.32],[100.58,16.58],[100.47,16.52],[100.24,16.53],[100.23,16.61],[100.01,16.57],[99.98,16.38],[100.02,16.19],[100.18,15.93],[100.35,15.97],[100.58,15.95],[100.65,16.03],[100.77,15.93],[100.64,16.05],[100.71,16.25],[100.65,16.32]]]},"properties":{"ADM1_TH":"พิจิตร","ADM1_PCODE":"TH66"}},{"type":"Feature","geometry":{"type":"Polygon","coordinates":[[[100.97,17.57],[100.99,17.74],[100.87,17.71],[100.58,17.42],[100.29,17.38],[100.28,17.22],[99.97,17.17],[100.1,16.98],[100.09,16.89],[99.94,16.86],[99.85,16.74],[99.93,16.58],[100.23,16.61],[100.24,16.53],[100.47,16.52],[100.58,16.58],[100.65,16.32],[100.85,16.52],[100.9,16.8],[101.07,16.9],[101.05,17.12],[101.11,17.22],[100.91,17.34],[100.83,17.48],[100.97,17.57]]]},"properties":{"ADM1_TH":"พิษณุโลก","ADM1_PCODE":"TH65"}},{"type":"Feature","geometry":{"type":"Polygon","coordinates":[[[100.6,14.66],[100.5,14.67],[100.5,14.46],[100.25,14.48],[100.28,14.4],[100.21,14.18],[100.28,14.13],[100.55,14.12],[100.82,14.24],[100.75,14.52],[100.62,14.56],[100.6,14.66]]]},"properties":{"ADM1_TH":"พระนครศรีอยุธยา","ADM1_PCODE":"TH14"}},{"type":"Feature","geometry":{"type":"Polygon","coordinates":[[[100.34,18.81],[100.11,18.81],[100.11,18.56],[99.72,18.07],[99.63,18.06],[99.37,17.77],[99.47,17.74],[99.67,17.8],[99.73,17.72],[99.89,17.81],[100.13,17.86],[100.25,17.96],[100.33,17.89],[100.41,18.02],[100.54,18.49],[100.41,18.48],[100.34,18.81]]]},"properties":{"ADM1_TH":"แพร่","ADM1_PCODE":"TH54"}},{"type":"Feature","geometry":{"type":"Polygon","coordinates":[[[98.3,8.2],[98.26,7.92],[98.3,7.76],[98.44,7.88],[98.44,8.07],[98.35,8.12],[98.3,8.2]]]},"properties":{"ADM1_TH":"ภูเก็ต","ADM1_PCODE":"TH83"}},{"type":"Feature","geometry":{"type":"Polygon","coordinates":[[[102.11,14.15],[101.95,14.25],[101.93,14.33],[101.75,14.35],[101.61,14.44],[101.43,14.39],[101.5,14.27],[101.29,14.15],[101.32,14.08],[101.14,13.97],[101.23,13.89],[101.55,13.79],[101.59,13.74],[101.76,13.77],[101.92,13.59],[101.95,13.67],[101.91,13.93],[101.97,14.03],[102.11,14.04],[102.11,14.15]]]},"properties":{"ADM1_TH":"ปราจีนบุรี","ADM1_PCODE":"TH25"}},{"type":"Feature","geometry":{"type":"Polygon","coordinates":[[[99.96,12.63],[99.44,12.58],[99.4,12.46],[99.48,12.28],[99.47,12.14],[99.57,12.14],[99.54,12.02],[99.66,11.83],[99.57,11.63],[99.31,11.32],[99.15,11.03],[99.27,10.97],[99.5,10.99],[99.49,11.12],[99.64,11.52],[99.84,11.84],[99.87,12.0],[100.02,12.19],[99.96,12.63]]]},"properties":{"ADM1_TH":"ประจวบคีรีขันธ์","ADM1_PCODE":"TH77"}},{"type":"Feature","geometry":{"type":"Polygon","coordinates":[[[98.89,10.78],[98.78,10.67],[98.82,10.55],[98.7,10.2],[98.52,9.85],[98.55,9.75],[98.39,9.33],[98.51,9.31],[98.67,9.36],[98.65,9.43],[98.77,9.54],[98.63,9.78],[98.9,10.03],[98.84,10.07],[98.94,10.34],[98.89,10.48],[98.96,10.61],[98.89,10.78]]]},"properties":{"ADM1_TH":"ระนอง","ADM1_PCODE":"TH85"}},{"type":"Feature","geometry":{"type":"Polygon","coordinates":[[[100.06,13.66],[99.96,13.72],[99.88,13.96],[99.82,13.82],[99.67,13.85],[99.54,13.76],[99.48,13.8],[99.17,13.73],[99.21,13.21],[99.27,13.15],[99.35,13.24],[99.44,13.18],[99.66,13.21],[99.76,13.34],[99.86,13.33],[99.92,13.51],[100.03,13.51],[100.06,13.66]]]},"properties":{"ADM1_TH":"ราชบุรี","ADM1_PCODE":"TH70"}},{"type":"Feature","geometry":{"type":"Polygon","coordinates":[[[101.7,13.15],[101.39,13.02],[101.19,13.09],[101.09,13.03],[100.99,12.66],[101.65,12.64],[101.78,12.69],[101.83,12.82],[101.7,13.15]]]},"properties":{"ADM1_TH":"ระยอง","ADM1_PCODE":"TH21"}},{"type":"Feature","geometry":{"type":"Polygon","coordinates":[[[104.35,16.32],[104.31,16.45],[103.82,16.47],[103.7,16.37],[103.75,16.3],[103.66,16.19],[103.5,16.2],[103.42,15.73],[103.27,15.65],[103.42,15.53],[103.4,15.44],[103.89,15.47],[103.99,15.41],[104.19,15.61],[104.13,15.8],[104.0,15.79],[104.04,15.98],[104.35,16.32]]]},"properties":{"ADM1_TH":"ร้อยเอ็ด","ADM1_PCODE":"TH45"}},{"type":"Feature","geometry":{"type":"Polygon","coordinates":[[[102.43,14.15],[102.31,14.12],[102.11,14.15],[102.11,14.04],[101.97,14.03],[101.91,13.93],[101.95,13.67],[101.92,13.59],[102.03,13.24],[102.13,13.34],[102.35,13.3],[102.37,13.58],[102.54,13.57],[102.55,13.66],[102.73,13.77],[102.78,13.93],[102.91,14.02],[102.93,14.18],[102.7,14.13],[102.43,14.15]]]},"properties":{"ADM1_TH":"สระแก้ว","ADM1_PCODE":"TH27"}},{"type":"Feature","geometry":{"type":"Polygon","coordinates":[[[104.01,17.81],[103.79,17.87],[103.52,18.07],[103.41,17.99],[103.4,17.62],[103.28,17.44],[103.28,17.27],[103.48,17.22],[103.67,17.11],[103.66,17.02],[103.95,16.78],[104.25,16.91],[104.4,17.02],[104.35,17.06],[104.44,17.24],[104.39,17.41],[104.17,17.43],[104.07,17.38],[104.01,17.49],[104.08,17.7],[104.01,17.81]]]},"properties":{"ADM1_TH":"สกลนคร","ADM1_PCODE":"TH47"}},{"type":"Feature","geometry":{"type":"Polygon","coordinates":[[[100.86,13.7],[100.7,13.66],[100.52,13.68],[100.45,13.5],[100.61,13.54],[100.85,13.48],[100.96,13.66],[100.86,13.7]]]},"properties":{"ADM1_TH":"สมุทรปราการ","ADM1_PCODE":"TH11"}},{"type":"Feature","geometry":{"type":"Polygon","coordinates":[[[100.33,13.72],[100.06,13.66],[100.03,13.51],[100.08,13.43],[100.41,13.49],[100.33,13.72]]]},"properties":{"ADM1_TH":"สมุทรสาคร","ADM1_PCODE":"TH74"}},{"type":"Feature","geometry":{"type":"Polygon","coordinates":[[[100.03,13.51],[99.92,13.51],[99.86,13.33],[99.95,13.3],[100.08,13.43],[100.03,13.51]]]},"properties":{"ADM1_TH":"สมุทรสงคราม","ADM1_PCODE":"TH75"}},{"type":"Feature","geometry":{"type":"Polygon","coordinates":[[[101.4,15.07],[101.26,14.91],[101.1,14.91],[100.99,14.74],[100.77,14.8],[100.6,14.66],[100.62,14.56],[100.75,14.52],[100.82,14.24],[100.95,14.27],[101.08,14.39],[101.21,14.37],[101.24,14.47],[101.2,14.76],[101.28,14.73],[101.45,14.86],[101.4,15.07]]]},"properties":{"ADM1_TH":"สระบุรี","ADM1_PCODE":"TH19"}},{"type":"Feature","geometry":{"type":"MultiPolygon","coordinates":[[[[99.65,6.74],[99.6,6.6],[99.7,6.54],[99.65,6.74]]],[[[99.95,7.2],[99.74,7.13],[99.67,7.04],[99.7,6.86],[99.77,6.84],[100.12,6.42],[100.2,6.73],[100.2,6.91],[100.12,6.92],[100.06,7.11],[99.95,7.2]]]]},"properties":{"ADM1_TH":"สตูล","ADM1_PCODE":"TH91"}},{"type":"Feature","geometry":{"type":"Polygon","coordinates":[[[104.12,15.56],[103.99,15.41],[104.09,15.36],[104.0,15.29],[104.02,15.04],[103.9,14.84],[104.05,14.68],[104.06,14.34],[104.53,14.35],[104.65,14.42],[104.91,14.4],[104.82,14.55],[104.88,14.7],[104.81,14.9],[104.68,14.95],[104.74,15.16],[104.61,15.28],[104.41,15.29],[104.25,15.37],[104.12,15.56]]]},"properties":{"ADM1_TH":"ศรีสะเกษ","ADM1_PCODE":"TH33"}},{"type":"Feature","geometry":{"type":"Polygon","coordinates":[[[100.43,15.06],[100.35,15.12],[100.2,14.95],[100.23,14.8],[100.46,14.72],[100.43,15.06]]]},"properties":{"ADM1_TH":"สิงห์บุรี","ADM1_PCODE":"TH17"}},{"type":"Feature","geometry":{"type":"Polygon","coordinates":[[[100.34,7.93],[100.18,7.88],[100.26,7.5],[100.39,7.51],[100.43,7.31],[100.31,7.21],[100.06,7.11],[100.12,6.92],[100.2,6.91],[100.2,6.73],[100.29,6.71],[100.36,6.55],[100.65,6.44],[100.74,6.51],[100.84,6.3],[101.04,6.49],[101.1,6.63],[101.02,6.72],[101.07,6.86],[100.77,6.98],[100.51,7.32],[100.44,7.49],[100.34,7.93]]]},"properties":{"ADM1_TH":"สงขลา","ADM1_PCODE":"TH90"}},{"type":"Feature","geometry":{"type":"Polygon","coordinates":[[[99.89,17.81],[99.73,17.72],[99.67,17.8],[99.47,17.74],[99.41,17.47],[99.47,17.37],[99.44,17.23],[99.32,17.27],[99.31,17.15],[99.46,16.91],[99.43,16.88],[99.76,16.68],[99.94,16.86],[100.09,16.89],[100.1,16.98],[99.97,17.17],[100.03,17.44],[99.93,17.52],[99.98,17.62],[99.89,17.81]]]},"properties":{"ADM1_TH":"สุโขทัย","ADM1_PCODE":"TH64"}},{"type":"Feature","geometry":{"type":"Polygon","coordinates":[[[99.72,14.96],[99.44,15.0],[99.32,15.08],[99.28,15.0],[99.29,14.83],[99.49,14.7],[99.66,14.8],[99.79,14.74],[99.83,14.27],[99.77,14.12],[99.81,14.06],[99.93,14.13],[100.21,14.18],[100.28,14.4],[100.19,14.61],[100.23,14.8],[100.2,14.95],[99.93,14.91],[99.72,14.96]]]},"properties":{"ADM1_TH":"สุพรรณบุรี","ADM1_PCODE":"TH72"}},{"type":"Feature","geometry":{"type":"MultiPolygon","coordinates":[[[[100.07,9.59],[99.92,9.57],[99.94,9.43],[100.02,9.42],[100.07,9.59]]],[[[99.16,9.7],[98.94,9.68],[98.88,9.73],[98.74,9.6],[98.77,9.54],[98.65,9.43],[98.67,9.36],[98.51,9.31],[98.45,8.9],[98.6,8.8],[98.54,8.66],[98.7,8.63],[98.89,8.68],[98.94,8.44],[99.04,8.36],[99.29,8.31],[99.23,8.39],[99.39,8.51],[99.52,8.72],[99.52,8.85],[99.7,8.94],[99.77,9.1],[99.72,9.15],[99.77,9.32],[99.37,9.19],[99.22,9.26],[99.3,9.41],[99.16,9.7]]],[[[100.03,9.8],[99.98,9.71],[100.07,9.67],[100.03,9.8]]]]},"properties":{"ADM1_TH":"สุราษฎร์ธานี","ADM1_PCODE":"TH84"}},{"type":"Feature","geometry":{"type":"Polygon","coordinates":[[[103.4,15.44],[103.35,15.41],[103.11,15.48],[103.09,15.42],[103.44,15.26],[103.43,14.94],[103.29,14.81],[103.21,14.59],[103.23,14.33],[103.71,14.43],[103.71,14.38],[104.06,14.34],[104.05,14.68],[103.9,14.84],[104.02,15.04],[104.0,15.29],[104.09,15.36],[103.89,15.47],[103.4,15.44]]]},"properties":{"ADM1_TH":"สุรินทร์","ADM1_PCODE":"TH32"}},{"type":"Feature","geometry":{"type":"Polygon","coordinates":[[[98.09,17.64],[97.74,17.79],[98.49,16.95],[98.46,16.73],[98.67,16.28],[98.93,16.33],[98.7,16.14],[98.56,15.65],[98.75,15.44],[99.04,15.29],[99.09,15.88],[99.02,16.42],[99.32,16.81],[99.31,17.15],[99.27,17.4],[99.05,17.39],[98.69,17.43],[98.52,17.82],[98.57,17.28],[98.29,17.41],[98.14,17.54],[98.09,17.64]]]},"properties":{"ADM1_TH":"ตาก","ADM1_PCODE":"TH63"}},{"type":"Feature","geometry":{"type":"Polygon","coordinates":[[[99.74,7.86],[99.75,8.01],[99.6,7.99],[99.52,7.88],[99.37,7.94],[99.28,7.85],[99.26,7.66],[99.4,7.3],[99.54,7.3],[99.6,7.14],[99.74,7.13],[99.95,7.2],[99.94,7.32],[99.82,7.52],[99.74,7.86]]]},"properties":{"ADM1_TH":"ตรัง","ADM1_PCODE":"TH92"}},{"type":"Feature","geometry":{"type":"MultiPolygon","coordinates":[[[[102.56,11.76],[102.53,11.6],[102.59,11.56],[102.56,11.76]]],[[[102.25,12.16],[102.29,11.98],[102.45,11.98],[102.25,12.16]]],[[[102.51,12.75],[102.39,12.68],[102.42,12.57],[102.31,12.56],[102.37,12.39],[102.26,12.29],[102.31,12.18],[102.47,12.16],[102.55,12.06],[102.56,12.18],[102.75,12.04],[102.71,12.18],[102.73,12.36],[102.79,12.41],[102.65,12.61],[102.51,12.67],[102.51,12.75]]]]},"properties":{"ADM1_TH":"ตราด","ADM1_PCODE":"TH23"}},{"type":"Feature","geometry":{"type":"Polygon","coordinates":[[[104.91,14.4],[104.99,14.38],[105.03,14.24],[105.14,14.24],[105.17,14.34],[105.42,14.42],[105.54,14.58],[105.51,14.8],[105.57,15.0],[105.47,15.16],[105.59,15.27],[105.49,15.39],[105.59,15.43],[105.63,15.66],[105.4,15.8],[105.35,15.91],[105.41,16.02],[105.06,16.1],[104.86,15.58],[104.63,15.69],[104.51,15.56],[104.39,15.54],[104.41,15.29],[104.61,15.28],[104.74,15.16],[104.68,14.95],[104.81,14.9],[104.88,14.7],[104.82,14.55],[104.91,14.4]]]},"properties":{"ADM1_TH":"อุบลราชธานี","ADM1_PCODE":"TH34"}},{"type":"Feature","geometry":{"type":"Polygon","coordinates":[[[103.4,17.9],[103.15,17.8],[103.08,17.89],[102.96,17.83],[102.87,17.89],[102.83,17.69],[102.65,17.59],[102.4,17.88],[102.06,18.09],[102.02,17.75],[102.08,17.63],[102.32,17.68],[102.44,17.28],[102.59,17.27],[102.47,17.2],[102.67,16.99],[102.82,16.97],[102.82,16.86],[102.94,16.84],[103.22,16.97],[103.4,16.89],[103.42,16.8],[103.52,17.06],[103.66,17.02],[103.67,17.11],[103.48,17.22],[103.28,17.27],[103.28,17.44],[103.4,17.62],[103.4,17.9]]]},"properties":{"ADM1_TH":"อุดรธานี","ADM1_PCODE":"TH41"}},{"type":"Feature","geometry":{"type":"Polygon","coordinates":[[[100.1,15.42],[99.74,15.69],[99.47,15.57],[99.36,15.68],[99.13,15.8],[99.04,15.29],[98.98,15.18],[99.03,15.05],[99.28,15.0],[99.32,15.08],[99.44,15.0],[99.72,14.96],[99.79,15.1],[99.76,15.31],[100.05,15.26],[100.1,15.42]]]},"properties":{"ADM1_TH":"อุทัยธานี","ADM1_PCODE":"TH61"}},{"type":"Feature","geometry":{"type":"Polygon","coordinates":[[[100.99,17.74],[101.02,17.89],[101.18,18.07],[101.18,18.34],[101.09,18.38],[100.91,18.23],[100.77,18.03],[100.48,18.06],[100.41,18.02],[100.33,17.89],[100.25,17.96],[100.13,17.86],[99.89,17.81],[99.98,17.62],[99.93,17.52],[100.03,17.44],[99.97,17.17],[100.28,17.22],[100.29,17.38],[100.58,17.42],[100.87,17.71],[100.99,17.74]]]},"properties":{"ADM1_TH":"อุตรดิตถ์","ADM1_PCODE":"TH53"}},{"type":"Feature","geometry":{"type":"Polygon","coordinates":[[[101.59,6.57],[101.51,6.6],[101.31,6.56],[101.1,6.63],[101.04,6.49],[100.84,6.3],[101.13,6.19],[101.08,5.91],[100.99,5.78],[101.14,5.61],[101.26,5.71],[101.26,5.8],[101.5,5.89],[101.48,6.05],[101.37,6.21],[101.42,6.42],[101.59,6.57]]]},"properties":{"ADM1_TH":"ยะลา","ADM1_PCODE":"TH95"}},{"type":"Feature","geometry":{"type":"Polygon","coordinates":[[[104.77,16.2],[104.63,16.21],[104.5,16.34],[104.35,16.32],[104.04,15.98],[104.0,15.79],[104.13,15.8],[104.19,15.61],[104.12,15.56],[104.25,15.37],[104.41,15.29],[104.39,15.54],[104.51,15.56],[104.42,15.71],[104.56,16.1],[104.81,16.1],[104.77,16.2]]]},"properties":{"ADM1_TH":"ยโสธร","ADM1_PCODE":"TH35"}}]}